ONEWEB-0620             
1 55161U 23004X   26192.93466413 -.00000239  00000+0 -71002-3 0  9991
2 55161  87.8879  16.1479 0002106  90.4415 269.6955 13.11418746169078
ONEWEB-0621             
1 55162U 23004Y   26192.96180765  .00000583  00000+0  16096-2 0  9999
2 55162  87.8882  16.1339 0001762  81.3683 278.7645 13.11415877169058
ONEWEB-0622             
1 55163U 23004Z   26192.50911312  .00000424  00000+0  11601-2 0  9991
2 55163  87.8891  16.2273 0002289  73.2308 286.9071 13.11415157168982
ONEWEB-0623             
1 55164U 23004AA  26192.84928051 -.00000035  00000+0 -12241-3 0  9999
2 55164  87.9124   0.9714 0001748  64.6346 295.4966 13.17647432170832
ONEWEB-0624             
1 55165U 23004AB  26192.81039641  .00000206  00000+0  53285-3 0  9996
2 55165  87.8963 345.6847 0001793  90.3202 269.8132 13.12927924171301
ONEWEB-0625             
1 55166U 23004AC  26192.91508957  .00000054  00000+0  10669-3 0  9999
2 55166  87.9134   0.9546 0001651  94.6874 265.4446 13.17650994170837
ONEWEB-0626             
1 55167U 23004AD  26192.82904758  .00000066  00000+0  13800-3 0  9992
2 55167  87.9139   0.9712 0002140  98.5751 261.5624 13.17650223170828
ONEWEB-0627             
1 55168U 23004AE  26192.51347766  .00000120  00000+0  27675-3 0  9995
2 55168  87.9142   1.0357 0002047  84.2193 275.9172 13.17648631170780
ONEWEB-0628             
1 55169U 23004AF  26192.87716391  .00000471  00000+0  12751-2 0  9996
2 55169  87.8966 345.7437 0001629  74.5056 285.6252 13.12442911171276
ONEWEB-0629             
1 55170U 23004AG  26192.86869230  .00000054  00000+0  10650-3 0  9992
2 55170  87.9140   0.9599 0001541  88.0838 272.0470 13.17649854170836
ONEWEB-0631             
1 55171U 23004AH  26192.83722822  .00000015  00000+0  59214-5 0  9993
2 55171  87.9189 330.5343 0002300  89.9513 270.1883 13.18686647172924
ONEWEB-0709             
1 55172U 23004AJ  26192.54300875 -.00000411  00000+0 -11959-2 0  9995
2 55172  87.8877  16.2285 0002596 100.9306 259.2115 13.11417515169068
ONEWEB-0710             
1 55173U 23004AK  26192.88303161  .00000006  00000+0 -16669-4 0  9998
2 55173  87.9138   0.9521 0001915  87.3274 272.8076 13.17648002170836
ONEWEB-0711             
1 55174U 23004AL  26192.97197800  .00000384  00000+0  10464-2 0  9993
2 55174  87.8850  16.1301 0001945  70.9065 289.2273 13.11414830169081
ONEWEB-0713             
1 55175U 23004AM  26192.91432381 -.00000413  00000+0 -12004-2 0  9991
2 55175  87.8882  16.1453 0001920  74.8404 285.2936 13.11415050169063
ONEWEB-0715             
1 55176U 23004AN  26192.52775369 -.00000299  00000+0 -87812-3 0  9997
2 55176  87.8879  16.2214 0002516  93.4768 266.6648 13.11414671169058
ONEWEB-0716             
1 55177U 23004AP  26192.49659925  .00000039  00000+0  66190-4 0  9990
2 55177  87.9133   1.0308 0001507  96.7838 263.3465 13.17648208170786
ONEWEB-0717             
1 55178U 23004AQ  26192.85940890  .00000064  00000+0  13060-3 0  9990
2 55178  87.9158   0.9498 0002195  78.1137 282.0241 13.17650285170881
ONEWEB-0719             
1 55179U 23004AR  26192.86952858  .00000008  00000+0 -11307-4 0  9991
2 55179  87.9149   0.9282 0001600  92.8920 267.2395 13.17651061170839
APSTAR-6E               
1 55239U 23005A   26192.63717748 -.00000312  00000+0  00000+0 0  9992
2 55239   0.0557 234.1096 0001742 330.9010  87.9369  1.00272143 18931
YAOGAN-37               
1 55244U 23006C   26192.90215321  .00003298  00000+0  17332-3 0  9994
2 55244  43.1978 345.7221 0016342 172.8242 187.2846 15.17409693193633
LINUSS1                 
1 55246U 22144G   26192.47958187 -.00000273  00000+0  00000+0 0  9995
2 55246   5.4379  63.9966 0009802 308.2628 223.9181  0.99055824 11908
LINUSS2                 
1 55247U 22144H   26192.59970958 -.00000228  00000+0  00000+0 0  9999
2 55247   5.4377  63.9885 0007188 315.4819 248.8399  0.99051008 11956
USA 342                 
1 55263U 23008A   26190.28864118  .00000000  00000+0  00000+0 0  9998
2 55263   0.0052 352.2306 0000262   7.3445  55.4773  1.00269378 12734
LDPE-3A                 
1 55264U 23008B   26193.16493132 -.00000289  00000+0  00000+0 0  9993
2 55264   2.4103  81.3553 0001507  79.7949 338.3022  0.99150942 12066
NAVSTAR 82 (USA 343)    
1 55268U 23009A   26193.13416449  .00000020  00000+0  00000+0 0  9993
2 55268  55.1239 147.5384 0006213 321.0542 219.3339  2.00569737 25741
STARLINK-5277           
1 55269U 23010A   26193.12870650  .00000199  00000+0  24454-4 0  9994
2 55269  69.9998  90.7848 0003077 263.2262  96.8547 14.98333946191702
STARLINK-5306           
1 55271U 23010C   26192.86585668  .00000788  00000+0  73806-4 0  9998
2 55271  69.9997  91.4736 0003404 269.3567  90.7202 14.98331886191383
STARLINK-5310           
1 55272U 23010D   26193.11619587 -.00000215  00000+0 -10244-4 0  9990
2 55272  70.0000  90.7439 0003013 268.9665  91.1148 14.98328682191423
STARLINK-5291           
1 55273U 23010E   26192.82409643  .00000090  00000+0  15294-4 0  9997
2 55273  69.9993  91.3301 0002854 259.8069 100.2768 14.98331543191381
STARLINK-5236           
1 55274U 23010F   26192.85309633  .00000995  00000+0  91177-4 0  9997
2 55274  69.9990  71.5593 0002667 264.9357  95.1498 14.98337582191876
